NORAD_CAT_ID,OBJECT_NAME,OBJECT_TYPE,EPOCH,MEAN_MOTION,ECCENTRICITY,INCLINATION,RA_OF_ASC_NODE,ARG_OF_PERICENTER,MEAN_ANOMALY,BSTAR,MEAN_MOTION_DOT,MEAN_MOTION_DDOT,TLE_LINE0,TLE_LINE1,TLE_LINE2,SEMIMAJOR_AXIS,PERIOD,APOGEE,PERIGEE,DECAYED
52698.0,STARLINK-4030,PAYLOAD,2022-07-23 14:00:01,15.08892987,0.0001811999999999,53.2182,337.7401,45.6689,251.3214,-0.0042888,-0.0006799999999999,0.0,0 STARLINK-4030,1 52698U 22053AU  22204.58335648 -.00068000  00000-0 -42888-2 0  9992,2 52698  53.2182 337.7401 0001812  45.6689 251.3214 15.08892987  1307,6917.718000000003,95.434,540.837,538.33,0.0
52698.0,STARLINK-4030,PAYLOAD,2022-07-23 22:00:00,15.08848585,0.0001819,53.2179,336.2439,39.9399,268.6278,-0.0033614,-0.00053402,0.0,0 STARLINK-4030,1 52698U 22053AU  22204.91667824 -.00053402  00000-0 -33614-2 0  9990,2 52698  53.2179 336.2439 0001819  39.9399 268.6278 15.08848585  1305,6917.854,95.437,540.9780000000002,538.461,0.0
52698.0,STARLINK-4030,PAYLOAD,2022-07-24 04:00:00,15.08779362,0.0001678,53.2182,335.1203,44.6837,182.5834,0.003363,0.00053552,0.0,0 STARLINK-4030,1 52698U 22053AU  22205.16667824  .00053552  00000-0  33630-2 0  9990,2 52698  53.2182 335.1203 0001678  44.6837 182.5834 15.08779362 10723,6918.066,95.441,541.092,538.77,0.0
52698.0,STARLINK-4030,PAYLOAD,2022-07-24 14:00:01,15.08838468,0.0001683,53.2181,333.2512,41.1242,290.5961,-0.0010385,-0.00016777,0.0,0 STARLINK-4030,1 52698U 22053AU  22205.58334491 -.00016777  00000-0 -10385-2 0  9999,2 52698  53.2181 333.2512 0001683  41.1242 290.5961 15.08838468  1300,6917.885,95.438,540.914,538.586,0.0
52698.0,STARLINK-4030,PAYLOAD,2022-07-24 22:00:00,15.08843831,0.0001720999999999,53.2177,331.7549,37.9232,305.3792,-0.00050601,-8.333e-05,0.0,0 STARLINK-4030,1 52698U 22053AU  22205.91667824 -.00008333  00000-0 -50601-3 0  9990,2 52698  53.2177 331.7549 0001721  37.9232 305.3792 15.08843831  1300,6917.869000000002,95.437,540.924,538.543,0.0
52698.0,STARLINK-4030,PAYLOAD,2022-07-25 14:00:01,15.08856307,0.0001706,53.2178,328.7624,42.2869,324.2043,-0.0015509,-0.00024897,0.0,0 STARLINK-4030,1 52698U 22053AU  22206.58334491 -.00024897  00000-0 -15509-2 0  9995,2 52698  53.2178 328.7624 0001706  42.2869 324.2043 15.08856307  1300,6917.831,95.437,540.876,538.515,0.0
52698.0,STARLINK-4030,PAYLOAD,2022-07-25 22:00:00,15.08855607,0.0001773,53.2174,327.2659,40.9643,337.1281,-0.0030916999999999,-0.00049178,0.0,0 STARLINK-4030,1 52698U 22053AU  22206.91667824 -.00049178  00000-0 -30917-2 0  9990,2 52698  53.2174 327.2659 0001773  40.9643 337.1281 15.08855607  1306,6917.833000000001,95.437,540.924,538.471,0.0
52698.0,STARLINK-4030,PAYLOAD,2022-07-26 04:00:01,15.08802372,0.0001644,53.2175,326.1424,47.4669,249.3937,0.0026475,0.00042055,0.0,0 STARLINK-4030,1 52698U 22053AU  22207.16668981  .00042055  00000-0  26475-2 0  9992,2 52698  53.2175 326.1424 0001644  47.4669 249.3937 15.08802372 11025,6917.995,95.44,540.998,538.7230000000002,0.0
52698.0,STARLINK-4030,PAYLOAD,2022-07-26 14:00:01,15.08836323,0.0001821999999999,53.2175,324.2736,45.40600000000001,355.8535,-0.0010665,-0.0001721999999999,0.0,0 STARLINK-4030,1 52698U 22053AU  22207.58334491 -.00017220  00000-0 -10665-2 0  9996,2 52698  53.2175 324.2736 0001822  45.4060 355.8535 15.08836323  1301,6917.892,95.438,541.0169999999998,538.496,0.0
52698.0,STARLINK-4030,PAYLOAD,2022-07-26 20:00:01,15.08825958,0.0001843,53.2173,323.1516,41.7551,278.1937,0.0014673,0.00023132,0.0,0 STARLINK-4030,1 52698U 22053AU  22207.83334491  .00023132  00000-0  14673-2 0  9994,2 52698  53.2173 323.1516 0001843  41.7551 278.1937 15.08825958 11126,6917.9230000000025,95.438,541.063,538.513,0.0
52698.0,STARLINK-4030,PAYLOAD,2022-07-26 22:00:00,15.08847534,0.0001828,53.2173,322.777,42.6196,10.2201,-0.0012254,-0.00019742,0.0,0 STARLINK-4030,1 52698U 22053AU  22207.91667824 -.00019742  00000-0 -12254-2 0  9999,2 52698  53.2173 322.7770 0001828  42.6196  10.2201 15.08847534  1303,6917.857,95.437,540.987,538.4580000000002,0.0
52698.0,STARLINK-4030,PAYLOAD,2022-07-27 14:00:01,15.08848852,0.0001886999999999,53.2174,319.7847,45.3689,30.6594,-0.000922,-0.00014936,0.0,0 STARLINK-4030,1 52698U 22053AU  22208.58334491 -.00014936  00000-0 -92200-3 0  9994,2 52698  53.2174 319.7847 0001887  45.3689  30.6594 15.08848852 11235,6917.853,95.437,541.024,538.413,0.0
52698.0,STARLINK-4030,PAYLOAD,2022-07-27 22:00:00,15.08863393,0.0001878,53.2174,318.288,42.9179,44.7068,-0.0014065,-0.00022617,0.0,0 STARLINK-4030,1 52698U 22053AU  22208.91667824 -.00022617  00000-0 -14065-2 0  9997,2 52698  53.2174 318.2880 0001878  42.9179  44.7068 15.08863393  1309,6917.809,95.436,540.9730000000002,538.375,0.0
52698.0,STARLINK-4030,PAYLOAD,2022-07-28 06:00:00,15.08840239,0.0001759,53.2176,316.7903,48.8695,50.3703,0.0023466,0.00037256,0.0,0 STARLINK-4030,1 52698U 22053AU  22209.25001157  .00037256  00000-0  23466-2 0  9994,2 52698  53.2176 316.7903 0001759  48.8695  50.3703 15.08840239 11344,6917.88,95.438,540.962,538.528,0.0
52698.0,STARLINK-4030,PAYLOAD,2022-07-28 14:00:01,15.08870223,0.0001916,53.2176,315.2958,43.6253,67.2265,-0.0034805,-0.00055302,0.0,0 STARLINK-4030,1 52698U 22053AU  22209.58334491 -.00055302  00000-0 -34805-2 0  9993,2 52698  53.2176 315.2958 0001916  43.6253  67.2265 15.08870223  1307,6917.788000000001,95.436,540.9780000000002,538.328,0.0
52698.0,STARLINK-4030,PAYLOAD,2022-07-28 22:00:00,15.08852576,0.0001859,53.2177,313.7990000000001,40.5944,81.8613,-0.0015946,-0.00025586,0.0,0 STARLINK-4030,1 52698U 22053AU  22209.91667824 -.00025586  00000-0 -15946-2 0  9995,2 52698  53.2177 313.7990 0001859  40.5944  81.8613 15.08852576 11442,6917.842,95.437,540.993,538.4209999999998,0.0
52698.0,STARLINK-4030,PAYLOAD,2022-07-29 14:00:01,15.08858374,0.0001914,53.218,310.807,41.3286,104.3294,-0.0023536,-0.0003756999999999,0.0,0 STARLINK-4030,1 52698U 22053AU  22210.58334491 -.00037570  00000-0 -23536-2 0  9991,2 52698  53.2180 310.8070 0001914  41.3286 104.3294 15.08858374 11542,6917.824000000001,95.436,541.013,538.365,0.0
52698.0,STARLINK-4030,PAYLOAD,2022-07-29 22:00:00,15.08846259,0.0001810999999999,53.2179,309.3101,38.5169,118.7405,-0.0024481,-0.00039046,0.0,0 STARLINK-4030,1 52698U 22053AU  22210.91667824 -.00039046  00000-0 -24481-2 0  9997,2 52698  53.2179 309.3101 0001811  38.5169 118.7405 15.08846259  1307,6917.861,95.437,540.979,538.4730000000002,0.0
52698.0,STARLINK-4030,PAYLOAD,2022-07-30 06:00:00,15.08823218,0.0001693,53.2182,307.8128,44.3468,124.4968,0.001567,0.00024727,0.0,0 STARLINK-4030,1 52698U 22053AU  22211.25001157  .00024727  00000-0  15670-2 0  9994,2 52698  53.2182 307.8128 0001693  44.3468 124.4968 15.08823218 11644,6917.932,95.439,540.9680000000002,538.625,0.0
52698.0,STARLINK-4030,PAYLOAD,2022-07-30 14:00:01,15.08829803,0.0001894,53.2181,306.3184,39.2774,141.1534,0.00011377,1.523e-05,0.0,0 STARLINK-4030,1 52698U 22053AU  22211.58334491  .00001523  00000-0  11377-3 0  9990,2 52698  53.2181 306.3184 0001894  39.2774 141.1534 15.08829803  1308,6917.9119999999975,95.438,541.087,538.466,0.0
52698.0,STARLINK-4030,PAYLOAD,2022-07-30 20:00:01,15.088431,0.0001884,53.2178,305.1958,37.3966,61.7184,-0.00054168,-8.9e-05,0.0,0 STARLINK-4030,1 52698U 22053AU  22211.83334491 -.00008900  00000-0 -54168-3 0  9991,2 52698  53.2178 305.1958 0001884  37.3966  61.7184 15.08843100 11733,6917.871,95.437,541.039,538.433,0.0
52698.0,STARLINK-4030,PAYLOAD,2022-07-30 22:00:00,15.08853557,0.0001809,53.2179,304.8213,39.2776,152.7332,-0.0020829999999999,-0.00033299,0.0,0 STARLINK-4030,1 52698U 22053AU  22211.91667824 -.00033299  00000-0 -20830-2 0  9996,2 52698  53.2179 304.8213 0001809  39.2776 152.7332 15.08853557  1306,6917.839,95.437,540.955,538.453,0.0
52698.0,STARLINK-4030,PAYLOAD,2022-07-31 14:00:01,15.08837684,0.0001896999999999,53.2178,301.8296,39.2381,175.9717,0.00048486,7.436e-05,0.0,0 STARLINK-4030,1 52698U 22053AU  22212.58334491  .00007436  00000-0  48486-3 0  9991,2 52698  53.2178 301.8296 0001897  39.2381 175.9717 15.08837684  1309,6917.887,95.438,541.065,538.44,0.0
52698.0,STARLINK-4030,PAYLOAD,2022-07-31 20:00:01,15.08856647,0.0001865,53.2173,300.7069,38.1349,95.7675,-0.0010046,-0.00016248,0.0,0 STARLINK-4030,1 52698U 22053AU  22212.83334491 -.00016248  00000-0 -10046-2 0  9992,2 52698  53.2173 300.7069 0001865  38.1349  95.7675 15.08856647 11883,6917.83,95.437,540.985,538.404,0.0
52698.0,STARLINK-4030,PAYLOAD,2022-07-31 22:00:00,15.0886345,0.0001779,53.2175,300.3323,39.5783,187.2243,-0.0021292,-0.00034037,0.0,0 STARLINK-4030,1 52698U 22053AU  22212.91667824 -.00034037  00000-0 -21292-2 0  9991,2 52698  53.2175 300.3323 0001779  39.5783 187.2243 15.08863450  1309,6917.809,95.436,540.904,538.443,0.0
52698.0,STARLINK-4030,PAYLOAD,2022-08-01 14:00:01,15.08821662,0.0001821,53.2172,297.3407,36.7261,213.299,0.00043755,6.679e-05,0.0,0 STARLINK-4030,1 52698U 22053AU  22213.58334491  .00006679  00000-0  43755-3 0  9994,2 52698  53.2172 297.3407 0001821  36.7261 213.2990 15.08821662  1300,6917.936,95.439,541.061,538.5419999999998,0.0
52698.0,STARLINK-4030,PAYLOAD,2022-08-01 22:00:00,15.08844108,0.0001696,53.2168,295.8432,37.4552,224.1445,-0.0020349,-0.00032532,0.0,0 STARLINK-4030,1 52698U 22053AU  22213.91667824 -.00032532  00000-0 -20349-2 0  9992,2 52698  53.2168 295.8432 0001696  37.4552 224.1445 15.08844108 12046,6917.868,95.437,540.906,538.56,0.0
52698.0,STARLINK-4030,PAYLOAD,2022-08-02 14:00:01,15.08821912,0.0001841999999999,53.2165,292.8517,37.5705,247.2091,0.0012769,0.00020082,0.0,0 STARLINK-4030,1 52698U 22053AU  22214.58334491  .00020082  00000-0  12769-2 0  9999,2 52698  53.2165 292.8517 0001842  37.5705 247.2091 15.08821912 12140,6917.936,95.439,541.075,538.526,0.0
52698.0,STARLINK-4030,PAYLOAD,2022-08-03 12:00:00,15.08841992,0.0001867,53.216,288.7363,38.5682,188.0911,-0.00022577,-3.88e-05,0.0,0 STARLINK-4030,1 52698U 22053AU  22215.50001157 -.00003880  00000-0 -22577-3 0  9990,2 52698  53.2160 288.7363 0001867  38.5682 188.0911 15.08841992 12288,6917.874,95.437,541.031,538.448,0.0
